{"type": "FeatureCollection", "features": [{"type": "Feature", "properties": {"norad_id": 28890, "name": "BEIJING 1", "group": "dmc", "lat": 23.246569243284704, "lon": 124.27121471848595, "alt_km": 679.4392946516673, "timestamp": "2025-12-26T07:29:18.126123+00:00", "meta": {"OBJECT_NAME": "BEIJING 1", "OBJECT_ID": "2005-043A", "EPOCH": "2025-12-25T23:10:34.351968", "MEAN_MOTION": 14.6337783, "ECCENTRICITY": 0.00158315, "INCLINATION": 98.2664, "RA_OF_ASC_NODE": 127.5046, "ARG_OF_PERICENTER": 102.3973, "MEAN_ANOMALY": 257.9002, "EPHEMERIS_TYPE": 0, "CLASSIFICATION_TYPE": "U", "NORAD_CAT_ID": 28890, "ELEMENT_SET_NO": 999, "REV_AT_EPOCH": 7531, "BSTAR": 9.0116198e-05, "MEAN_MOTION_DOT": 4.18e-06, "MEAN_MOTION_DDOT": 0}, "tle": {"line1": "1 28890U 05043A   25359.96567537  .00000418  00000+0  90116-4 0  9994", "line2": "2 28890  98.2664 127.5046 0015831 102.3973 257.9002 14.63377830 75315"}}, "geometry": {"type": "Point", "coordinates": [124.27121471848595, 23.246569243284704]}}, {"type": "Feature", "properties": {"norad_id": 33320, "name": "HUANJING 1A (HJ-1A)", "group": "dmc", "lat": -51.203052947388194, "lon": -2.3250125281051894, "alt_km": 615.6029597420466, "timestamp": "2025-12-26T07:29:18.126147+00:00", "meta": {"OBJECT_NAME": "HUANJING 1A (HJ-1A)", "OBJECT_ID": "2008-041A", "EPOCH": "2025-12-25T23:37:35.715360", "MEAN_MOTION": 14.83433678, "ECCENTRICITY": 0.00191297, "INCLINATION": 97.6552, "RA_OF_ASC_NODE": 347.73, "ARG_OF_PERICENTER": 351.9535, "MEAN_ANOMALY": 8.137, "EPHEMERIS_TYPE": 0, "CLASSIFICATION_TYPE": "U", "NORAD_CAT_ID": 33320, "ELEMENT_SET_NO": 999, "REV_AT_EPOCH": 93272, "BSTAR": 0.00018524386, "MEAN_MOTION_DOT": 1.474e-05, "MEAN_MOTION_DDOT": 0}, "tle": {"line1": "1 33320U 08041A   25359.98444115  .00001474  00000+0  18524-3 0  9992", "line2": "2 33320  97.6552 347.7300 0019129 351.9535   8.1370 14.83433678932723"}}, "geometry": {"type": "Point", "coordinates": [-2.3250125281051894, -51.203052947388194]}}, {"type": "Feature", "properties": {"norad_id": 33321, "name": "HUANJING 1B (HJ-1B)", "group": "dmc", "lat": 37.755059219380634, "lon": 177.67278533778222, "alt_km": 626.1013130526708, "timestamp": "2025-12-26T07:29:18.126161+00:00", "meta": {"OBJECT_NAME": "HUANJING 1B (HJ-1B)", "OBJECT_ID": "2008-041B", "EPOCH": "2025-12-25T22:45:23.995296", "MEAN_MOTION": 14.82857109, "ECCENTRICITY": 0.0037654, "INCLINATION": 97.6409, "RA_OF_ASC_NODE": 351.3576, "ARG_OF_PERICENTER": 33.9078, "MEAN_ANOMALY": 326.4532, "EPHEMERIS_TYPE": 0, "CLASSIFICATION_TYPE": "U", "NORAD_CAT_ID": 33321, "ELEMENT_SET_NO": 999, "REV_AT_EPOCH": 93273, "BSTAR": 0.00023111722, "MEAN_MOTION_DOT": 1.843e-05, "MEAN_MOTION_DDOT": 0}, "tle": {"line1": "1 33321U 08041B   25359.94819439  .00001843  00000+0  23112-3 0  9993", "line2": "2 33321  97.6409 351.3576 0037654  33.9078 326.4532 14.82857109932738"}}, "geometry": {"type": "Point", "coordinates": [177.67278533778222, 37.755059219380634]}}, {"type": "Feature", "properties": {"norad_id": 33446, "name": "YAOGAN-4", "group": "dmc", "lat": 46.07700193152296, "lon": -78.03155736544997, "alt_km": 622.7552927606794, "timestamp": "2025-12-26T07:29:18.126173+00:00", "meta": {"OBJECT_NAME": "YAOGAN-4", "OBJECT_ID": "2008-061A", "EPOCH": "2025-12-25T18:19:17.173344", "MEAN_MOTION": 14.8271976, "ECCENTRICITY": 0.00129661, "INCLINATION": 97.9198, "RA_OF_ASC_NODE": 289.7359, "ARG_OF_PERICENTER": 277.0684, "MEAN_ANOMALY": 82.9055, "EPHEMERIS_TYPE": 0, "CLASSIFICATION_TYPE": "U", "NORAD_CAT_ID": 33446, "ELEMENT_SET_NO": 999, "REV_AT_EPOCH": 91996, "BSTAR": 0.00018510552, "MEAN_MOTION_DOT": 1.442e-05, "MEAN_MOTION_DDOT": 0}, "tle": {"line1": "1 33446U 08061A   25359.76339321  .00001442  00000+0  18511-3 0  9992", "line2": "2 33446  97.9198 289.7359 0012966 277.0684  82.9055 14.82719760919964"}}, "geometry": {"type": "Point", "coordinates": [-78.03155736544997, 46.07700193152296]}}, {"type": "Feature", "properties": {"norad_id": 35681, "name": "DEIMOS-1", "group": "dmc", "lat": 21.05935273060194, "lon": -16.723363155174017, "alt_km": 645.4665688812302, "timestamp": "2025-12-26T07:29:18.126184+00:00", "meta": {"OBJECT_NAME": "DEIMOS-1", "OBJECT_ID": "2009-041A", "EPOCH": "2025-12-25T22:37:51.672288", "MEAN_MOTION": 14.74971621, "ECCENTRICITY": 0.00024534, "INCLINATION": 97.7158, "RA_OF_ASC_NODE": 159.9324, "ARG_OF_PERICENTER": 59.8125, "MEAN_ANOMALY": 300.3327, "EPHEMERIS_TYPE": 0, "CLASSIFICATION_TYPE": "U", "NORAD_CAT_ID": 35681, "ELEMENT_SET_NO": 999, "REV_AT_EPOCH": 88134, "BSTAR": 0.00010562581, "MEAN_MOTION_DOT": 6.63e-06, "MEAN_MOTION_DDOT": 0}, "tle": {"line1": "1 35681U 09041A   25359.94295917  .00000663  00000+0  10563-3 0  9999", "line2": "2 35681  97.7158 159.9324 0002453  59.8125 300.3327 14.74971621881343"}}, "geometry": {"type": "Point", "coordinates": [-16.723363155174017, 21.05935273060194]}}, {"type": "Feature", "properties": {"norad_id": 35683, "name": "UK-DMC 2", "group": "dmc", "lat": -26.53539803329763, "lon": -49.12171420905797, "alt_km": 649.3117810861522, "timestamp": "2025-12-26T07:29:18.126195+00:00", "meta": {"OBJECT_NAME": "UK-DMC 2", "OBJECT_ID": "2009-041C", "EPOCH": "2025-12-25T22:25:03.889056", "MEAN_MOTION": 14.75648623, "ECCENTRICITY": 0.00015781, "INCLINATION": 97.8573, "RA_OF_ASC_NODE": 134.4652, "ARG_OF_PERICENTER": 91.877, "MEAN_ANOMALY": 268.2621, "EPHEMERIS_TYPE": 0, "CLASSIFICATION_TYPE": "U", "NORAD_CAT_ID": 35683, "ELEMENT_SET_NO": 999, "REV_AT_EPOCH": 88101, "BSTAR": 0.0001572623, "MEAN_MOTION_DOT": 1.025e-05, "MEAN_MOTION_DDOT": 0}, "tle": {"line1": "1 35683U 09041C   25359.93407279  .00001025  00000+0  15726-3 0  9995", "line2": "2 35683  97.8573 134.4652 0001578  91.8770 268.2621 14.75648623881015"}}, "geometry": {"type": "Point", "coordinates": [-49.12171420905797, -26.53539803329763]}}, {"type": "Feature", "properties": {"norad_id": 40715, "name": "DMC3-FM1", "group": "dmc", "lat": 14.148514017119439, "lon": -134.9367312835178, "alt_km": 614.1105941184524, "timestamp": "2025-12-26T07:29:18.126205+00:00", "meta": {"OBJECT_NAME": "DMC3-FM1", "OBJECT_ID": "2015-032A", "EPOCH": "2025-12-25T21:43:27.616800", "MEAN_MOTION": 14.85461477, "ECCENTRICITY": 0.0004085, "INCLINATION": 97.6679, "RA_OF_ASC_NODE": 226.6177, "ARG_OF_PERICENTER": 266.1617, "MEAN_ANOMALY": 93.9132, "EPHEMERIS_TYPE": 0, "CLASSIFICATION_TYPE": "U", "NORAD_CAT_ID": 40715, "ELEMENT_SET_NO": 999, "REV_AT_EPOCH": 56418, "BSTAR": 9.2727768e-05, "MEAN_MOTION_DOT": 7.48e-06, "MEAN_MOTION_DDOT": 0}, "tle": {"line1": "1 40715U 15032A   25359.90518075  .00000748  00000+0  92728-4 0  9997", "line2": "2 40715  97.6679 226.6177 0004085 266.1617  93.9132 14.85461477564188"}}, "geometry": {"type": "Point", "coordinates": [-134.9367312835178, 14.148514017119439]}}, {"type": "Feature", "properties": {"norad_id": 40716, "name": "DMC3-FM2", "group": "dmc", "lat": -72.5037333666104, "lon": 23.14088779214611, "alt_km": 616.3743571469649, "timestamp": "2025-12-26T07:29:18.126216+00:00", "meta": {"OBJECT_NAME": "DMC3-FM2", "OBJECT_ID": "2015-032B", "EPOCH": "2025-12-25T22:15:49.851648", "MEAN_MOTION": 14.85465049, "ECCENTRICITY": 0.00045805, "INCLINATION": 97.6735, "RA_OF_ASC_NODE": 228.0927, "ARG_OF_PERICENTER": 272.49, "MEAN_ANOMALY": 87.5791, "EPHEMERIS_TYPE": 0, "CLASSIFICATION_TYPE": "U", "NORAD_CAT_ID": 40716, "ELEMENT_SET_NO": 999, "REV_AT_EPOCH": 56418, "BSTAR": 0.00016671421, "MEAN_MOTION_DOT": 1.386e-05, "MEAN_MOTION_DDOT": 0}, "tle": {"line1": "1 40716U 15032B   25359.92766032  .00001386  00000+0  16671-3 0  9999", "line2": "2 40716  97.6735 228.0927 0004580 272.4900  87.5791 14.85465049564185"}}, "geometry": {"type": "Point", "coordinates": [23.14088779214611, -72.5037333666104]}}, {"type": "Feature", "properties": {"norad_id": 40717, "name": "DMC3-FM3", "group": "dmc", "lat": 41.47472471020491, "lon": 56.955150031575286, "alt_km": 610.7673836255108, "timestamp": "2025-12-26T07:29:18.126226+00:00", "meta": {"OBJECT_NAME": "DMC3-FM3", "OBJECT_ID": "2015-032C", "EPOCH": "2025-12-25T22:47:08.236896", "MEAN_MOTION": 14.8545223, "ECCENTRICITY": 0.00038598, "INCLINATION": 97.6793, "RA_OF_ASC_NODE": 229.7555, "ARG_OF_PERICENTER": 274.0379, "MEAN_ANOMALY": 86.0395, "EPHEMERIS_TYPE": 0, "CLASSIFICATION_TYPE": "U", "NORAD_CAT_ID": 40717, "ELEMENT_SET_NO": 999, "REV_AT_EPOCH": 56419, "BSTAR": 0.00018539179, "MEAN_MOTION_DOT": 1.547e-05, "MEAN_MOTION_DDOT": 0}, "tle": {"line1": "1 40717U 15032C   25359.94940089  .00001547  00000+0  18539-3 0  9992", "line2": "2 40717  97.6793 229.7555 0003859 274.0379  86.0395 14.85452230564194"}}, "geometry": {"type": "Point", "coordinates": [56.955150031575286, 41.47472471020491]}}]}